OBJECT_NAME,OBJECT_ID,EPOCH,MEAN_MOTION,ECCENTRICITY,INCLINATION,RA_OF_ASC_NODE,ARG_OF_PERICENTER,MEAN_ANOMALY,EPHEMERIS_TYPE,CLASSIFICATION_TYPE,NORAD_CAT_ID,ELEMENT_SET_NO,REV_AT_EPOCH,BSTAR,MEAN_MOTION_DOT,MEAN_MOTION_DDOT
SPACEMOBILE-004,2024-163E,2026-07-04T23:24:26.985312,15.20799201,.00074637,52.9646,227.1235,189.3572,170.7284,0,U,61049,999,10047,.11767463E-2,.26055E-3,0
CZ-8A R/B,2025-231K,2026-07-04T15:50:55.661280,14.30160215,.01164968,50.0053,324.9779,285.5204,73.2874,0,U,66004,999,3744,.7716237E-4,.53E-6,0
SZ-21 MODULE,2025-246C,2026-07-05T01:44:20.573376,15.78017716,.00058338,41.4704,195.8059,145.8574,214.2647,0,U,66515,999,3656,.36961949E-3,.65007E-3,0
SPACEMOBILE-006,2025-309A,2026-07-05T04:58:56.791200,15.18640214,.00107425,52.9961,249.0893,182.6620,177.4319,0,U,67232,999,2933,.14421712E-3,.2706E-4,0
SPACEMOBILE-008,2026-139A,2026-07-04T23:29:21.180768,15.12791825,.00045319,52.9937,181.7914,31.4553,328.6708,0,U,69589,999,267,.47782231E-4,.547E-5,0
SPACEMOBILE-009,2026-139B,2026-07-04T23:31:08.453280,15.12685143,.00047409,52.9927,181.7949,26.4443,333.6789,0,U,69590,999,267,.488071E-4,.563E-5,0
SPACEMOBILE-010,2026-139C,2026-07-04T23:33:58.893696,15.12516354,.00046173,52.9932,181.8095,17.3022,342.8125,0,U,69591,999,268,.51397229E-4,.605E-5,0
